{
  "type": "FeatureCollection",
  "features": [
    {
      "type": "Feature",
      "properties": {
        "id": "cheonho-1942-provisional",
        "fieldVerified": false,
        "note": "현장 검증 전 임시 경로. 공개된 천호 일대 위치를 바탕으로 한 프로토타입용 보행선이며, 현장 측량 결과가 아닙니다.",
        "distance_m_estimate": 760
      },
      "geometry": {
        "type": "LineString",
        "coordinates": [
          [127.12385, 37.53865],
          [127.12442, 37.53882],
          [127.12518, 37.53902],
          [127.12592, 37.53928],
          [127.12655, 37.53952],
          [127.12715, 37.53985],
          [127.12752, 37.54018],
          [127.12788, 37.54052],
          [127.12818, 37.54082],
          [127.12855, 37.54105],
          [127.12882, 37.54142],
          [127.12912, 37.54182],
          [127.12938, 37.54214],
          [127.12955, 37.54240]
        ]
      }
    }
  ]
}
